CSS (TIANHE)            
1 48274U 21035A   23205.65171774  .00027013  00000+0  32381-3 0  9998
2 48274  41.4758 288.2806 0008435 347.9324 164.8346 15.60275148127687
